ONEWEB-0207             
1 48242U 21031AJ  25042.44683282 -.00000188  00000+0 -54200-3 0  9999
2 48242  87.9011  27.2573 0001714  79.7904 280.3419 13.14504848183820
ONEWEB-0208             
1 48243U 21031AK  25042.50472901 -.00000080  00000+0 -24913-3 0  9990
2 48243  87.9011  27.2602 0001987  83.5332 276.6024 13.14503463183848
ONEWEB-0200             
1 48244U 21031AL  25042.46824681  .00000210  00000+0  53085-3 0  9997
2 48244  87.9009  27.2612 0002027  84.0938 276.0423 13.14504629183764
ONEWEB-0217             
1 48245U 21031AM  25042.48410964  .00000281  00000+0  72334-3 0  9991
2 48245  87.9010  27.2427 0002167  84.4215 275.7162 13.14504035183710
ONEWEB-0211             
1 48767U 21045A   25042.60126631 -.00000075  00000+0 -23436-3 0  9996
2 48767  87.9114 356.8661 0001929  86.5119 273.6232 13.15551578179913
ONEWEB-0223             
1 48768U 21045B   25042.39532353  .00000152  00000+0  36931-3 0  9993
2 48768  87.9120 356.9219 0002153  94.6447 265.4930 13.15546703179878
ONEWEB-0230             
1 48769U 21045C   25042.59497604 -.00000070  00000+0 -22128-3 0  9999
2 48769  87.9100 356.9469 0001708  85.1847 274.9479 13.15550027180169
ONEWEB-0237             
1 48770U 21045D   25042.43177223 -.00000106  00000+0 -31672-3 0  9990
2 48770  87.9123 356.9276 0002019  91.9772 268.1590 13.15550355179868
